start=new Date('2023-01-21T00:00:00.000Z').valueOf();
sats=[{"TLE_LINE1":"1 53183U 22083BD  23020.30710008  .00010317  00000-0  66510-3 0  9994","MEAN_MOTION":"15.08854699","ECCENTRICITY":"0.00013470","MEAN_MOTION_DOT":"0.00010317","EPOCH":"2023-01-20T07:22:13.446912","ARG_OF_PERICENTER":"72.3947","CLASSIFICATION_TYPE":"U","TIME_SYSTEM":"UTC","INCLINATION":"53.2134","FILE":"3755973","ELEMENT_SET_NO":"999","BSTAR":"0.00066510000000","PERIAPSIS":"538.769","REV_AT_EPOCH":"2907","DECAY_DATE":null,"MEAN_MOTION_DDOT":"0.0000000000000","SITE":"AFETR","GP_ID":"223550355","MEAN_ANOMALY":"287.7192","NORAD_CAT_ID":"53183","TLE_LINE2":"2 53183  53.2134 226.4488 0001347  72.3947 287.7192 15.08854699 29070","OBJECT_TYPE":"PAYLOAD","REF_FRAME":"TEME","MEAN_ELEMENT_THEORY":"SGP4","APOAPSIS":"540.632","OBJECT_NAME":"STARLINK-4268","RCS_SIZE":"LARGE","LAUNCH_DATE":"2022-07-17","PERIOD":"95.437","RA_OF_ASC_NODE":"226.4488","CENTER_NAME":"EARTH","SEMIMAJOR_AXIS":"6917.835","OBJECT_ID":"2022-083BD","COUNTRY_CODE":"US","EPHEMERIS_TYPE":"0"},{"MEAN_MOTION_DOT":"0.00001162","EPOCH":"2023-01-20T10:34:50.629728","INCLINATION":"53.2168","TIME_SYSTEM":"UTC","CLASSIFICATION_TYPE":"U","ARG_OF_PERICENTER":"86.5987","TLE_LINE1":"1 53184U 22083BE  23020.44086377  .00001162  00000-0  91064-4 0  9996","ECCENTRICITY":"0.00011860","MEAN_MOTION":"15.08837541","MEAN_MOTION_DDOT":"0.0000000000000","SITE":"AFETR","MEAN_ANOMALY":"273.5140","GP_ID":"223549124","ELEMENT_SET_NO":"999","FILE":"3755973","REV_AT_EPOCH":"2918","DECAY_DATE":null,"BSTAR":"0.00009106400000","PERIAPSIS":"538.932","OBJECT_NAME":"STARLINK-4257","APOAPSIS":"540.573","TLE_LINE2":"2 53184  53.2168 220.4280 0001186  86.5987 273.5140 15.08837541 29189","OBJECT_TYPE":"PAYLOAD","NORAD_CAT_ID":"53184","MEAN_ELEMENT_THEORY":"SGP4","REF_FRAME":"TEME","RA_OF_ASC_NODE":"220.4280","SEMIMAJOR_AXIS":"6917.888","OBJECT_ID":"2022-083BE","CENTER_NAME":"EARTH","COUNTRY_CODE":"US","EPHEMERIS_TYPE":"0","LAUNCH_DATE":"2022-07-17","RCS_SIZE":"LARGE","PERIOD":"95.438"},{"PERIOD":"95.919","LAUNCH_DATE":"2022-07-22","RCS_SIZE":"LARGE","EPHEMERIS_TYPE":"0","COUNTRY_CODE":"US","CENTER_NAME":"EARTH","OBJECT_ID":"2022-084A","SEMIMAJOR_AXIS":"6941.140","RA_OF_ASC_NODE":"83.6082","REF_FRAME":"TEME","MEAN_ELEMENT_THEORY":"SGP4","NORAD_CAT_ID":"53189","OBJECT_TYPE":"PAYLOAD","TLE_LINE2":"2 53189  97.6542  83.6082 0001328 106.0893 254.0477 15.01262202 28313","APOAPSIS":"563.927","OBJECT_NAME":"STARLINK-4391","BSTAR":"0.00009491600000","PERIAPSIS":"562.083","REV_AT_EPOCH":"2831","DECAY_DATE":null,"FILE":"3755973","ELEMENT_SET_NO":"999","GP_ID":"223549371","MEAN_ANOMALY":"254.0477","SITE":"AFWTR","MEAN_MOTION_DDOT":"0.0000000000000","ECCENTRICITY":"0.00013280","MEAN_MOTION":"15.01262202","TLE_LINE1":"1 53189U 22084A   23020.42649340  .00001160  00000-0  94916-4 0  9992","CLASSIFICATION_TYPE":"U","TIME_SYSTEM":"UTC","ARG_OF_PERICENTER":"106.0893","INCLINATION":"97.6542","EPOCH":"2023-01-20T10:14:09.029760","MEAN_MOTION_DOT":"0.00001160"},{"MEAN_ANOMALY":"262.1965","GP_ID":"223550110","SITE":"AFWTR","MEAN_MOTION_DDOT":"0.0000000000000","REV_AT_EPOCH":"2831","DECAY_DATE":null,"PERIAPSIS":"562.295","BSTAR":"0.00092427000000","ELEMENT_SET_NO":"999","FILE":"3755973","INCLINATION":"97.6602","CLASSIFICATION_TYPE":"U","TIME_SYSTEM":"UTC","ARG_OF_PERICENTER":"97.9376","EPOCH":"2023-01-20T10:57:09.600768","MEAN_MOTION_DOT":"0.00011832","MEAN_MOTION":"15.01260380","ECCENTRICITY":"0.00010310","TLE_LINE1":"1 53190U 22084B   23020.45636112  .00011832  00000-0  92427-3 0  9991","EPHEMERIS_TYPE":"0","COUNTRY_CODE":"US","OBJECT_ID":"2022-084B","SEMIMAJOR_AXIS":"6941.146","CENTER_NAME":"EARTH","RA_OF_ASC_NODE":"83.6324","PERIOD":"95.919","LAUNCH_DATE":"2022-07-22","RCS_SIZE":"LARGE","OBJECT_NAME":"STARLINK-4332","APOAPSIS":"563.726","MEAN_ELEMENT_THEORY":"SGP4","REF_FRAME":"TEME","TLE_LINE2":"2 53190  97.6602  83.6324 0001031  97.9376 262.1965 15.01260380 28313","OBJECT_TYPE":"PAYLOAD","NORAD_CAT_ID":"53190"},{"RA_OF_ASC_NODE":"83.8502","OBJECT_ID":"2022-084C","SEMIMAJOR_AXIS":"6941.146","CENTER_NAME":"EARTH","COUNTRY_CODE":"US","EPHEMERIS_TYPE":"0","LAUNCH_DATE":"2022-07-22","RCS_SIZE":"LARGE","PERIOD":"95.919","OBJECT_NAME":"STARLINK-4369","APOAPSIS":"563.602","TLE_LINE2":"2 53191  97.6579  83.8502 0000851 111.8999 248.2316 15.01260306 28057","OBJECT_TYPE":"PAYLOAD","NORAD_CAT_ID":"53191","MEAN_ELEMENT_THEORY":"SGP4","REF_FRAME":"TEME","MEAN_MOTION_DDOT":"0.0000000000000","SITE":"AFWTR","MEAN_ANOMALY":"248.2316","GP_ID":"223553023","ELEMENT_SET_NO":"999","FILE":"3756109","DECAY_DATE":null,"REV_AT_EPOCH":"2805","PERIAPSIS":"562.420","BSTAR":"-0.00025006000000","MEAN_MOTION_DOT":"-0.00003269","EPOCH":"2023-01-20T16:30:03.157056","INCLINATION":"97.6579","CLASSIFICATION_TYPE":"U","ARG_OF_PERICENTER":"111.8999","TIME_SYSTEM":"UTC","TLE_LINE1":"1 53191U 22084C   23020.68753654 -.00003269  00000-0 -25006-3 0  9994","MEAN_MOTION":"15.01260306","ECCENTRICITY":"0.00008510"},{"TLE_LINE1":"1 53192U 22084D   23020.68569827  .00014970  00000-0  11675-2 0  9997","MEAN_MOTION":"15.01263879","ECCENTRICITY":"0.00009200","CLASSIFICATION_TYPE":"U","TIME_SYSTEM":"UTC","ARG_OF_PERICENTER":"127.1276","INCLINATION":"97.6579","MEAN_MOTION_DOT":"0.00014970","EPOCH":"2023-01-20T16:27:24.330528","FILE":"3756113","ELEMENT_SET_NO":"999","BSTAR":"0.00116750000000","PERIAPSIS":"562.361","DECAY_DATE":null,"REV_AT_EPOCH":"2805","GP_ID":"223553586","MEAN_ANOMALY":"233.0032","MEAN_MOTION_DDOT":"0.0000000000000","SITE":"AFWTR","REF_FRAME":"TEME","MEAN_ELEMENT_THEORY":"SGP4","NORAD_CAT_ID":"53192","OBJECT_TYPE":"PAYLOAD","TLE_LINE2":"2 53192  97.6579  83.8472 0000920 127.1276 233.0032 15.01263879 28054","APOAPSIS":"563.638","OBJECT_NAME":"STARLINK-4375","LAUNCH_DATE":"2022-07-22","RCS_SIZE":"LARGE","PERIOD":"95.919","COUNTRY_CODE":"US","EPHEMERIS_TYPE":"0","RA_OF_ASC_NODE":"83.8472","CENTER_NAME":"EARTH","OBJECT_ID":"2022-084D","SEMIMAJOR_AXIS":"6941.135"},{"ECCENTRICITY":"0.00014720","MEAN_MOTION":"15.01258601","TLE_LINE1":"1 53193U 22084E   23020.42464283  .00001860  00000-0  14934-3 0  9996","EPOCH":"2023-01-20T10:11:29.140512","MEAN_MOTION_DOT":"0.00001860","ARG_OF_PERICENTER":"98.0488","CLASSIFICATION_TYPE":"U","TIME_SYSTEM":"UTC","INCLINATION":"97.6572","BSTAR":"0.00014934000000","PERIAPSIS":"561.994","DECAY_DATE":null,"REV_AT_EPOCH":"2865","FILE":"3755973","ELEMENT_SET_NO":"999","SITE":"AFWTR","MEAN_MOTION_DDOT":"0.0000000000000","GP_ID":"223548877","MEAN_ANOMALY":"262.0903","NORAD_CAT_ID":"53193","TLE_LINE2":"2 53193  97.6572  83.5950 0001472  98.0488 262.0903 15.01258601 28652","OBJECT_TYPE":"PAYLOAD","REF_FRAME":"TEME","MEAN_ELEMENT_THEORY":"SGP4","APOAPSIS":"564.038","OBJECT_NAME":"STARLINK-4351","PERIOD":"95.920","LAUNCH_DATE":"2022-07-22","RCS_SIZE":"LARGE","CENTER_NAME":"EARTH","OBJECT_ID":"2022-084E","SEMIMAJOR_AXIS":"6941.151","RA_OF_ASC_NODE":"83.5950","EPHEMERIS_TYPE":"0","COUNTRY_CODE":"US"},{"PERIOD":"95.920","RCS_SIZE":"LARGE","LAUNCH_DATE":"2022-07-22","CENTER_NAME":"EARTH","OBJECT_ID":"2022-084F","SEMIMAJOR_AXIS":"6941.160","RA_OF_ASC_NODE":"83.8536","EPHEMERIS_TYPE":"0","COUNTRY_CODE":"US","NORAD_CAT_ID":"53194","TLE_LINE2":"2 53194  97.6579  83.8536 0001119 105.1429 254.9919 15.01255890 28054","OBJECT_TYPE":"PAYLOAD","REF_FRAME":"TEME","MEAN_ELEMENT_THEORY":"SGP4","APOAPSIS":"563.801","OBJECT_NAME":"STARLINK-4382","BSTAR":"-0.00018784000000","PERIAPSIS":"562.248","REV_AT_EPOCH":"2805","DECAY_DATE":null,"FILE":"3756113","ELEMENT_SET_NO":"999","SITE":"AFWTR","MEAN_MOTION_DDOT":"0.0000000000000","GP_ID":"223553594","MEAN_ANOMALY":"254.9919","MEAN_MOTION":"15.01255890","ECCENTRICITY":"0.00011190","TLE_LINE1":"1 53194U 22084F   23020.68939637 -.00002471  00000-0 -18784-3 0  9993","EPOCH":"2023-01-20T16:32:43.846368","MEAN_MOTION_DOT":"-0.00002471","TIME_SYSTEM":"UTC","CLASSIFICATION_TYPE":"U","ARG_OF_PERICENTER":"105.1429","INCLINATION":"97.6579"},{"NORAD_CAT_ID":"53195","TLE_LINE2":"2 53195  97.6550  83.6005 0000861 247.4771 112.6362 15.00449179 28300","OBJECT_TYPE":"PAYLOAD","REF_FRAME":"TEME","MEAN_ELEMENT_THEORY":"SGP4","APOAPSIS":"566.110","OBJECT_NAME":"STARLINK-4404","LAUNCH_DATE":"2022-07-22","RCS_SIZE":"LARGE","PERIOD":"95.971","RA_OF_ASC_NODE":"83.6005","CENTER_NAME":"EARTH","OBJECT_ID":"2022-084G","SEMIMAJOR_AXIS":"6943.647","COUNTRY_CODE":"US","EPHEMERIS_TYPE":"0","TLE_LINE1":"1 53195U 22084G   23020.41350828  .00003668  00000-0  29619-3 0  9990","ECCENTRICITY":"0.00008610","MEAN_MOTION":"15.00449179","MEAN_MOTION_DOT":"0.00003668","EPOCH":"2023-01-20T09:55:27.115392","ARG_OF_PERICENTER":"247.4771","CLASSIFICATION_TYPE":"U","TIME_SYSTEM":"UTC","INCLINATION":"97.6550","FILE":"3755973","ELEMENT_SET_NO":"999","BSTAR":"0.00029619000000","PERIAPSIS":"564.914","DECAY_DATE":null,"REV_AT_EPOCH":"2830","MEAN_MOTION_DDOT":"0.0000000000000","SITE":"AFWTR","GP_ID":"223550356","MEAN_ANOMALY":"112.6362"},{"CENTER_NAME":"EARTH","SEMIMAJOR_AXIS":"6941.128","OBJECT_ID":"2022-084H","RA_OF_ASC_NODE":"83.8490","EPHEMERIS_TYPE":"0","COUNTRY_CODE":"US","PERIOD":"95.919","LAUNCH_DATE":"2022-07-22","RCS_SIZE":"LARGE","APOAPSIS":"563.621","OBJECT_NAME":"STARLINK-4407","NORAD_CAT_ID":"53196","TLE_LINE2":"2 53196  97.6577  83.8490 0000904 122.2225 237.9087 15.01266041 28055","OBJECT_TYPE":"PAYLOAD","REF_FRAME":"TEME","MEAN_ELEMENT_THEORY":"SGP4","SITE":"AFWTR","MEAN_MOTION_DDOT":"0.0000000000000","GP_ID":"223553317","MEAN_ANOMALY":"237.9087","BSTAR":"0.00059003000000","PERIAPSIS":"562.366","DECAY_DATE":null,"REV_AT_EPOCH":"2805","FILE":"3756113","ELEMENT_SET_NO":"999","EPOCH":"2023-01-20T16:27:45.205632","MEAN_MOTION_DOT":"0.00007529","TIME_SYSTEM":"UTC","CLASSIFICATION_TYPE":"U","ARG_OF_PERICENTER":"122.2225","INCLINATION":"97.6577","ECCENTRICITY":"0.00009040","MEAN_MOTION":"15.01266041","TLE_LINE1":"1 53196U 22084H   23020.68593988  .00007529  00000-0  59003-3 0  9996"}];
